{
  "type": "FeatureCollection",
  "features": [
    {
      "type": "Feature",
      "properties": {
        "norad_id": 67081,
        "name": "STARLINK-35864",
        "group": "last-30-days",
        "lat": -66.6795630547719,
        "lon": 158.53774045395366,
        "alt_km": 326.0614963595899,
        "timestamp": "2025-12-24T14:43:27.724109+00:00",
        "meta_object_name": "STARLINK-35864",
        "meta_object_id": "2025-298G",
        "meta_epoch": "2025-12-24T06:00:02.000160",
        "meta_mean_motion": 15.84489565,
        "meta_eccentricity": 0.00039011,
        "meta_inclination": 69.9965,
        "meta_ra_of_asc_node": 217.2612,
        "meta_arg_of_pericenter": 272.8921,
        "meta_mean_anomaly": 97.5045,
        "meta_ephemeris_type": 0,
        "meta_classification_type": "U",
        "meta_norad_cat_id": 67081,
        "meta_element_set_no": 999,
        "meta_rev_at_epoch": 282,
        "meta_bstar": -0.0088179154,
        "meta_mean_motion_dot": -0.01751047,
        "meta_mean_motion_ddot": 0,
        "tle_line1": "1 67081U 25298G   25358.25002315 -.01751047  00000+0 -88179-2 0  9990",
        "tle_line2": "2 67081  69.9965 217.2612 0003901 272.8921  97.5045 15.84489565  2820"
      },
      "geometry": {
        "type": "Point",
        "coordinates": [
          158.53774045395366,
          -66.6795630547719
        ]
      }
    },
    {
      "type": "Feature",
      "properties": {
        "norad_id": 67082,
        "name": "STARLINK-36035",
        "group": "last-30-days",
        "lat": -65.57749583250107,
        "lon": 162.86847019455277,
        "alt_km": 326.0208320363963,
        "timestamp": "2025-12-24T14:43:27.724120+00:00",
        "meta_object_name": "STARLINK-36035",
        "meta_object_id": "2025-298H",
        "meta_epoch": "2025-12-24T06:00:02.000160",
        "meta_mean_motion": 15.84482716,
        "meta_eccentricity": 0.00039657,
        "meta_inclination": 69.9965,
        "meta_ra_of_asc_node": 217.2589,
        "meta_arg_of_pericenter": 274.555,
        "meta_mean_anomaly": 97.9238,
        "meta_ephemeris_type": 0,
        "meta_classification_type": "U",
        "meta_norad_cat_id": 67082,
        "meta_element_set_no": 999,
        "meta_rev_at_epoch": 282,
        "meta_bstar": -0.0088065313,
        "meta_mean_motion_dot": -0.01748689,
        "meta_mean_motion_ddot": 0,
        "tle_line1": "1 67082U 25298H   25358.25002315 -.01748689  00000+0 -88065-2 0  9993",
        "tle_line2": "2 67082  69.9965 217.2589 0003965 274.5550  97.9238 15.84482716  2820"
      },
      "geometry": {
        "type": "Point",
        "coordinates": [
          162.86847019455277,
          -65.57749583250107
        ]
      }
    },
    {
      "type": "Feature",
      "properties": {
        "norad_id": 67083,
        "name": "STARLINK-36170",
        "group": "last-30-days",
        "lat": -64.33441995811908,
        "lon": 166.91183321614128,
        "alt_km": 326.044595951279,
        "timestamp": "2025-12-24T14:43:27.724133+00:00",
        "meta_object_name": "STARLINK-36170",
        "meta_object_id": "2025-298J",
        "meta_epoch": "2025-12-24T06:00:02.000160",
        "meta_mean_motion": 15.84476147,
        "meta_eccentricity": 0.0003959,
        "meta_inclination": 69.9962,
        "meta_ra_of_asc_node": 217.2561,
        "meta_arg_of_pericenter": 274.867,
        "meta_mean_anomaly": 99.7397,
        "meta_ephemeris_type": 0,
        "meta_classification_type": "U",
        "meta_norad_cat_id": 67083,
        "meta_element_set_no": 999,
        "meta_rev_at_epoch": 282,
        "meta_bstar": -0.008811566,
        "meta_mean_motion_dot": -0.01749064,
        "meta_mean_motion_ddot": 0,
        "tle_line1": "1 67083U 25298J   25358.25002315 -.01749064  00000+0 -88116-2 0  9999",
        "tle_line2": "2 67083  69.9962 217.2561 0003959 274.8670  99.7397 15.84476147  2824"
      },
      "geometry": {
        "type": "Point",
        "coordinates": [
          166.91183321614128,
          -64.33441995811908
        ]
      }
    },
    {
      "type": "Feature",
      "properties": {
        "norad_id": 67084,
        "name": "STARLINK-36166",
        "group": "last-30-days",
        "lat": -63.06333659834033,
        "lon": 170.4071406703134,
        "alt_km": 326.0341736034097,
        "timestamp": "2025-12-24T14:43:27.724143+00:00",
        "meta_object_name": "STARLINK-36166",
        "meta_object_id": "2025-298K",
        "meta_epoch": "2025-12-24T06:00:02.000160",
        "meta_mean_motion": 15.84473796,
        "meta_eccentricity": 0.00039934,
        "meta_inclination": 69.9964,
        "meta_ra_of_asc_node": 217.2535,
        "meta_arg_of_pericenter": 274.7347,
        "meta_mean_anomaly": 101.882,
        "meta_ephemeris_type": 0,
        "meta_classification_type": "U",
        "meta_norad_cat_id": 67084,
        "meta_element_set_no": 999,
        "meta_rev_at_epoch": 276,
        "meta_bstar": -0.0088148889,
        "meta_mean_motion_dot": -0.01749505,
        "meta_mean_motion_ddot": 0,
        "tle_line1": "1 67084U 25298K   25358.25002315 -.01749505  00000+0 -88149-2 0  9996",
        "tle_line2": "2 67084  69.9964 217.2535 0003993 274.7347 101.8820 15.84473796  2762"
      },
      "geometry": {
        "type": "Point",
        "coordinates": [
          170.4071406703134,
          -63.06333659834033
        ]
      }
    },
    {
      "type": "Feature",
      "properties": {
        "norad_id": 67085,
        "name": "STARLINK-35794",
        "group": "last-30-days",
        "lat": -61.73016299540636,
        "lon": 173.5635501357654,
        "alt_km": 326.2217238343237,
        "timestamp": "2025-12-24T14:43:27.724153+00:00",
        "meta_object_name": "STARLINK-35794",
        "meta_object_id": "2025-298L",
        "meta_epoch": "2025-12-24T06:00:02.000160",
        "meta_mean_motion": 15.84467948,
        "meta_eccentricity": 0.00038578,
        "meta_inclination": 69.9963,
        "meta_ra_of_asc_node": 217.2512,
        "meta_arg_of_pericenter": 268.7973,
        "meta_mean_anomaly": 109.8023,
        "meta_ephemeris_type": 0,
        "meta_classification_type": "U",
        "meta_norad_cat_id": 67085,
        "meta_element_set_no": 999,
        "meta_rev_at_epoch": 282,
        "meta_bstar": -0.0087900689,
        "meta_mean_motion_dot": -0.01744663,
        "meta_mean_motion_ddot": 0,
        "tle_line1": "1 67085U 25298L   25358.25002315 -.01744663  00000+0 -87901-2 0  9992",
        "tle_line2": "2 67085  69.9963 217.2512 0003857 268.7973 109.8023 15.84467948  2826"
      },
      "geometry": {
        "type": "Point",
        "coordinates": [
          173.5635501357654,
          -61.73016299540636
        ]
      }
    },
    {
      "type": "Feature",
      "properties": {
        "norad_id": 67086,
        "name": "STARLINK-35841",
        "group": "last-30-days",
        "lat": -60.167364560100836,
        "lon": 176.76443105042281,
        "alt_km": 326.1957931385059,
        "timestamp": "2025-12-24T14:43:27.724163+00:00",
        "meta_object_name": "STARLINK-35841",
        "meta_object_id": "2025-298M",
        "meta_epoch": "2025-12-24T06:00:02.000160",
        "meta_mean_motion": 15.8446182,
        "meta_eccentricity": 0.00038855,
        "meta_inclination": 69.9962,
        "meta_ra_of_asc_node": 217.2484,
        "meta_arg_of_pericenter": 271.5702,
        "meta_mean_anomaly": 109.2496,
        "meta_ephemeris_type": 0,
        "meta_classification_type": "U",
        "meta_norad_cat_id": 67086,
        "meta_element_set_no": 999,
        "meta_rev_at_epoch": 282,
        "meta_bstar": -0.0088163666,
        "meta_mean_motion_dot": -0.01748745,
        "meta_mean_motion_ddot": 0,
        "tle_line1": "1 67086U 25298M   25358.25002315 -.01748745  00000+0 -88164-2 0  9990",
        "tle_line2": "2 67086  69.9962 217.2484 0003885 271.5702 109.2496 15.84461820  2828"
      },
      "geometry": {
        "type": "Point",
        "coordinates": [
          176.76443105042281,
          -60.167364560100836
        ]
      }
    },
    {
      "type": "Feature",
      "properties": {
        "norad_id": 67087,
        "name": "STARLINK-35842",
        "group": "last-30-days",
        "lat": -59.38243264857045,
        "lon": 178.2099430715595,
        "alt_km": 328.29955695786794,
        "timestamp": "2025-12-24T14:43:27.724173+00:00",
        "meta_object_name": "STARLINK-35842",
        "meta_object_id": "2025-298N",
        "meta_epoch": "2025-12-24T06:00:02.000160",
        "meta_mean_motion": 15.84242522,
        "meta_eccentricity": 0.00039748,
        "meta_inclination": 69.9963,
        "meta_ra_of_asc_node": 217.2463,
        "meta_arg_of_pericenter": 274.6108,
        "meta_mean_anomaly": 107.9276,
        "meta_ephemeris_type": 0,
        "meta_classification_type": "U",
        "meta_norad_cat_id": 67087,
        "meta_element_set_no": 999,
        "meta_rev_at_epoch": 282,
        "meta_bstar": -0.012408033,
        "meta_mean_motion_dot": -0.02433338,
        "meta_mean_motion_ddot": 0,
        "tle_line1": "1 67087U 25298N   25358.25002315 -.02433338  00000+0 -12408-1 0  9998",
        "tle_line2": "2 67087  69.9963 217.2463 0003974 274.6108 107.9276 15.84242522  2827"
      },
      "geometry": {
        "type": "Point",
        "coordinates": [
          178.2099430715595,
          -59.38243264857045
        ]
      }
    }
  ]
}